     2.100          NAVIGATION                              RINEX VERSION / TYPE
fic2rin                                 07/11/2012 00:26:00 PGM / RUN BY / DATE
                                                            END OF HEADER
28 12  7 10 16  0  0.0  .163516961038D-03  .386535248253D-11  .000000000000D+00
     .610000000000D+02 -.631250000000D+01  .435982446133D-08  .457594786008D+00
    -.173225998878D-06  .179011038272D-01  .727362930775D-05  .515363089180D+04
     .230400000000D+06 -.171363353729D-06  .225696295602D+01  .372529029846D-07
     .979528412170D+00  .254281250000D+03 -.182537307055D+01 -.831284626341D-08
     .130005415247D-09  .100000000000D+01  .169600000000D+04  .000000000000D+00
     .240000000000D+01  .000000000000D+00 -.107102096081D-07  .610000000000D+02
     .223206000000D+06  .400000000000D+01
29 12  7 10 16  0  0.0  .332166440785D-03  .397903932026D-11  .000000000000D+00
     .200000000000D+02 -.390000000000D+02  .456197573889D-08  .268627953702D+01
    -.203028321266D-05  .211591634434D-02  .658631324768D-05  .515355324364D+04
     .230400000000D+06  .298023223877D-07 -.298450082661D+01  .167638063431D-07
     .964091596730D+00  .253437500000D+03 -.111498381973D+01 -.804354933183D-08
    -.162863926793D-09  .100000000000D+01  .169600000000D+04  .000000000000D+00
     .240000000000D+01  .000000000000D+00 -.931322574615D-08  .200000000000D+02
     .223206000000D+06  .400000000000D+01
31 12  7 10 16  0  0.0  .259221997112D-03  .284217094304D-11  .000000000000D+00
     .980000000000D+02 -.145937500000D+02  .410088510404D-08 -.296947370869D+01
    -.650063157082D-06  .774183927570D-02  .839866697788D-05  .515368311882D+04
     .230400000000D+06 -.316649675369D-07  .117819100059D+01  .149011611938D-06
     .980829996718D+00  .228000000000D+03 -.858619167723D+00 -.769960643380D-08
     .107147320259D-10  .100000000000D+01  .169600000000D+04  .000000000000D+00
     .340000000000D+01  .000000000000D+00 -.130385160446D-07  .980000000000D+02
     .223206000000D+06  .400000000000D+01
31 12  7 10 15 59 44.0  .259221997112D-03  .284217094304D-11  .000000000000D+00
     .500000000000D+01 -.145937500000D+02  .410088510404D-08 -.297180765844D+01
    -.650063157082D-06  .774184288457D-02  .839866697788D-05  .515368313026D+04
     .230384000000D+06 -.316649675369D-07  .117819111762D+01  .149011611938D-06
     .980829999644D+00  .228000000000D+03 -.858618919027D+00 -.769996359153D-08
     .110718897601D-10  .100000000000D+01  .169600000000D+04  .000000000000D+00
     .240000000000D+01  .000000000000D+00 -.130385160446D-07  .500000000000D+01
     .223956000000D+06  .400000000000D+01
17 12  7 10 15 59 44.0  .114465132356D-03 -.295585778076D-11  .000000000000D+00
     .900000000000D+01 -.396250000000D+02  .473126850490D-08 -.152004096335D+00
    -.205263495445D-05  .741795753129D-02  .650994479656D-05  .515370453453D+04
     .230384000000D+06  .391155481339D-07 -.299308790265D+01  .121071934700D-06
     .963540085392D+00  .256125000000D+03 -.229440321654D+01 -.827391607039D-08
    -.165006873199D-09  .100000000000D+01  .169600000000D+04  .000000000000D+00
     .240000000000D+01  .000000000000D+00 -.107102096081D-07  .900000000000D+01
     .226566000000D+06  .400000000000D+01
17 12  7 10 17 59 44.0  .114443711936D-03 -.295585778076D-11  .000000000000D+00
     .100000000000D+02 -.396562500000D+02  .473305429357D-08  .898143018576D+00
    -.197067856789D-05  .741808686871D-02  .668503344059D-05  .515370485115D+04
     .237584000000D+06 -.726431608200D-07 -.299314682168D+01  .838190317154D-07
     .963538678065D+00  .254593750000D+03 -.229438702935D+01 -.822891419588D-08
    -.248581783000D-09  .100000000000D+01  .169600000000D+04  .000000000000D+00
     .240000000000D+01  .000000000000D+00 -.107102096081D-07  .100000000000D+02
     .230406000000D+06  .400000000000D+01
31 12  7 10 17 59 44.0  .259242020547D-03  .284217094304D-11  .000000000000D+00
     .600000000000D+01 -.194375000000D+02  .406624080382D-08 -.192148434967D+01
    -.890344381332D-06  .774038070813D-02  .796094536781D-05  .515368663979D+04
     .237584000000D+06 -.203028321266D-06  .117813538044D+01  .104308128357D-06
     .980829546139D+00  .240687500000D+03 -.858771352165D+00 -.782461164077D-08
     .221437795202D-10  .100000000000D+01  .169600000000D+04  .000000000000D+00
     .240000000000D+01  .000000000000D+00 -.130385160446D-07  .600000000000D+01
     .230406000000D+06  .400000000000D+01
 1 12  7 10 18  0  0.0  .264996197075D-03  .159161572810D-11  .000000000000D+00
     .400000000000D+02  .243750000000D+01  .436303888094D-08 -.137211459463D+01
     .152736902237D-06  .892724143341D-03  .980496406555D-05  .515364653587D+04
     .237600000000D+06 -.745058059692D-08 -.198560719582D+01 -.745058059692D-07
     .959864750951D+00  .192750000000D+03  .262895606932D+00 -.782104006343D-08
    -.213937482783D-09  .100000000000D+01  .169600000000D+04  .000000000000D+00
     .240000000000D+01  .000000000000D+00  .838190317154D-08  .400000000000D+02
     .230406000000D+06  .400000000000D+01
 2 12  7 10 18  0  0.0  .396381597966D-03  .125055521494D-11  .000000000000D+00
     .210000000000D+02 -.515625000000D+01  .505735351622D-08 -.492860477320D+00
    -.322237610817D-06  .113253692398D-01  .981241464615D-05  .515372170830D+04
     .237600000000D+06  .229105353355D-06 -.200030146330D+01  .931322574615D-07
     .938411319181D+00  .180125000000D+03 -.276186227044D+01 -.836070539980D-08
    -.253581991279D-09  .100000000000D+01  .169600000000D+04  .000000000000D+00
     .240000000000D+01  .000000000000D+00 -.172294676304D-07  .210000000000D+02
     .230406000000D+06  .400000000000D+01
 3 12  7 10 18  0  0.0  .735791400075D-04  .500222085975D-11  .000000000000D+00
     .480000000000D+02 -.307812500000D+02  .559166148657D-08 -.318064289934D+00
    -.143609941006D-05  .155253906269D-01  .565685331821D-05  .515372073555D+04
     .237600000000D+06 -.104308128357D-06  .311850985731D+01  .106170773506D-06
     .931938089545D+00  .253625000000D+03  .120420142657D+01 -.888787021547D-08
    -.914323799542D-10  .100000000000D+01  .169600000000D+04  .000000000000D+00
     .240000000000D+01  .000000000000D+00 -.465661287308D-08  .480000000000D+02
     .230406000000D+06  .400000000000D+01
 4 12  7 10 18  0  0.0  .239802990109D-03  .113686837722D-10  .000000000000D+00
     .630000000000D+02 -.553125000000D+01  .488056043779D-08  .272929033943D+01
    -.415369868279D-06  .100335257594D-01  .101663172245D-04  .515362657738D+04
     .237600000000D+06  .651925802231D-07 -.198345878213D+01 -.139698386192D-06
     .937459022417D+00  .169437500000D+03  .868094935776D+00 -.800140471919D-08
    -.202865593023D-09  .100000000000D+01  .169600000000D+04  .000000000000D+00
     .240000000000D+01  .000000000000D+00 -.605359673500D-08  .630000000000D+02
     .230406000000D+06  .400000000000D+01
 5 12  7 10 18  0  0.0 -.333369709551D-03 -.352429196937D-11  .000000000000D+00
     .410000000000D+02  .665000000000D+02  .469126683867D-08  .163807972407D+01
     .351667404175D-05  .269594683778D-02  .760890543461D-05  .515370105171D+04
     .237600000000D+06 -.111758708954D-07 -.936429803957D+00 -.223517417908D-07
     .950482248315D+00  .227312500000D+03  .204507260674D+00 -.818855537191D-08
     .115004790411D-09  .100000000000D+01  .169600000000D+04  .000000000000D+00
     .240000000000D+01  .000000000000D+00 -.102445483208D-07  .410000000000D+02
     .230406000000D+06  .400000000000D+01
 6 12  7 10 18  0  0.0  .866036862135D-05 -.488853402203D-11  .000000000000D+00
     .820000000000D+02 -.356250000000D+02  .529057751665D-08  .155712470488D+01
    -.169500708580D-05  .735989701934D-02  .545382499695D-05  .515368509865D+04
     .237600000000D+06  .949949026108D-07 -.308773702734D+01  .558793544769D-08
     .938781098058D+00  .256250000000D+03 -.498380990334D+00 -.842892252703D-08
    -.238581366443D-09  .100000000000D+01  .169600000000D+04  .000000000000D+00
     .240000000000D+01  .000000000000D+00 -.512227416039D-08  .820000000000D+02
     .230406000000D+06  .400000000000D+01
 7 12  7 10 18  0  0.0  .990577973425D-04  .386535248253D-11  .000000000000D+00
     .110000000000D+02 -.265937500000D+02  .411981446395D-08 -.182462247069D+01
    -.161118805408D-05  .564738537651D-02  .887550413609D-05  .515373546791D+04
     .237600000000D+06  .521540641785D-07  .117502195284D+01 -.875443220139D-07
     .975775629383D+00  .216937500000D+03 -.302957584446D+01 -.788497129785D-08
     .742888087128D-10  .100000000000D+01  .169600000000D+04  .000000000000D+00
     .240000000000D+01  .000000000000D+00 -.107102096081D-07  .110000000000D+02
     .230406000000D+06  .400000000000D+01
 8 12  7 10 18  0  0.0  .171363353729D-05  .113686837722D-12  .000000000000D+00
     .112000000000D+03 -.245312500000D+02  .361622205874D-08 -.254061767918D+01
    -.135414302349D-05  .124294897541D-01  .956840813160D-05  .515367384529D+04
     .237600000000D+06 -.147148966789D-06  .125932428805D+01 -.195577740669D-06
     .997984478402D+00  .218781250000D+03 -.296142453739D+01 -.751745598936D-08
     .842892252703D-10  .100000000000D+01  .169600000000D+04  .000000000000D+00
     .340000000000D+01  .000000000000D+00 -.372529029846D-08  .112000000000D+03
     .230406000000D+06  .400000000000D+01
 9 12  7 10 18  0  0.0  .170803628862D-03  .250111042988D-11  .000000000000D+00
     .115000000000D+03 -.327500000000D+02  .387587573150D-08 -.254514359954D+01
    -.162795186043D-05  .175125077367D-01  .785477459431D-05  .515362127113D+04
     .237600000000D+06  .197440385818D-06  .114959684477D+01  .987201929092D-07
     .984508706111D+00  .235125000000D+03  .163279061544D+01 -.751709883162D-08
     .807176479283D-10  .100000000000D+01  .169600000000D+04  .000000000000D+00
     .340000000000D+01  .000000000000D+00 -.558793544769D-08  .115000000000D+03
     .230406000000D+06  .400000000000D+01
